{"fetched_at":"2026-07-13T18:16:44.870Z","source":"https://celestrak.org/NORAD/elements/gp.php?NAME=BRO&FORMAT=JSON","constellation":"unseenlabs","records":[{"OBJECT_NAME":"BRO-1","OBJECT_ID":"2019-054A","EPOCH":"2026-07-13T00:10:27.486048","CLASSIFICATION_TYPE":"U","MEAN_MOTION":16.13463787,"ECCENTRICITY":0.00089724,"INCLINATION":44.9818,"RA_OF_ASC_NODE":132.4627,"ARG_OF_PERICENTER":179.7711,"MEAN_ANOMALY":180.321,"EPHEMERIS_TYPE":0,"NORAD_CAT_ID":44495,"ELEMENT_SET_NO":999,"REV_AT_EPOCH":38387,"BSTAR":0.00089524323,"MEAN_MOTION_DOT":0.0110501,"MEAN_MOTION_DDOT":0.00079549412},{"OBJECT_NAME":"BRO-5","OBJECT_ID":"2022-002CF","EPOCH":"2026-07-13T07:12:07.327584","CLASSIFICATION_TYPE":"U","MEAN_MOTION":15.48806116,"ECCENTRICITY":0.00051984,"INCLINATION":97.2993,"RA_OF_ASC_NODE":268.2244,"ARG_OF_PERICENTER":210.5605,"MEAN_ANOMALY":149.5344,"EPHEMERIS_TYPE":0,"NORAD_CAT_ID":51061,"ELEMENT_SET_NO":999,"REV_AT_EPOCH":25029,"BSTAR":0.00035929781,"MEAN_MOTION_DOT":0.00019247,"MEAN_MOTION_DDOT":0},{"OBJECT_NAME":"BRO-6","OBJECT_ID":"2022-047AE","EPOCH":"2026-07-13T06:12:58.291200","CLASSIFICATION_TYPE":"U","MEAN_MOTION":15.52461327,"ECCENTRICITY":0.0002932,"INCLINATION":97.3396,"RA_OF_ASC_NODE":285.8485,"ARG_OF_PERICENTER":321.9462,"MEAN_ANOMALY":38.1583,"EPHEMERIS_TYPE":0,"NORAD_CAT_ID":52422,"ELEMENT_SET_NO":999,"REV_AT_EPOCH":23519,"BSTAR":0.00044745142,"MEAN_MOTION_DOT":0.00027325,"MEAN_MOTION_DDOT":0},{"OBJECT_NAME":"BRO-8","OBJECT_ID":"2023-001C","EPOCH":"2026-07-13T06:16:05.481984","CLASSIFICATION_TYPE":"U","MEAN_MOTION":15.50670084,"ECCENTRICITY":0.00050578,"INCLINATION":97.3193,"RA_OF_ASC_NODE":259.8479,"ARG_OF_PERICENTER":46.7613,"MEAN_ANOMALY":313.406,"EPHEMERIS_TYPE":0,"NORAD_CAT_ID":55011,"ELEMENT_SET_NO":999,"REV_AT_EPOCH":19624,"BSTAR":0.00037155167,"MEAN_MOTION_DOT":0.00021262,"MEAN_MOTION_DDOT":0},{"OBJECT_NAME":"BRO-11","OBJECT_ID":"2023-174J","EPOCH":"2026-07-13T06:06:32.664672","CLASSIFICATION_TYPE":"U","MEAN_MOTION":15.27579931,"ECCENTRICITY":0.00119459,"INCLINATION":97.3902,"RA_OF_ASC_NODE":270.8616,"ARG_OF_PERICENTER":113.5802,"MEAN_ANOMALY":246.6693,"EPHEMERIS_TYPE":0,"NORAD_CAT_ID":58264,"ELEMENT_SET_NO":999,"REV_AT_EPOCH":14873,"BSTAR":0.00010376507,"MEAN_MOTION_DOT":0.00002729,"MEAN_MOTION_DDOT":0},{"OBJECT_NAME":"BRO-13","OBJECT_ID":"2024-043K","EPOCH":"2026-07-13T07:13:20.616384","CLASSIFICATION_TYPE":"U","MEAN_MOTION":14.9664762,"ECCENTRICITY":0.0007533,"INCLINATION":97.8521,"RA_OF_ASC_NODE":325.407,"ARG_OF_PERICENTER":269.8423,"MEAN_ANOMALY":90.1935,"EPHEMERIS_TYPE":0,"NORAD_CAT_ID":59107,"ELEMENT_SET_NO":999,"REV_AT_EPOCH":12852,"BSTAR":0.000076004361,"MEAN_MOTION_DOT":0.00000807,"MEAN_MOTION_DDOT":0},{"OBJECT_NAME":"BRO-12","OBJECT_ID":"2024-043L","EPOCH":"2026-07-13T07:01:36.583392","CLASSIFICATION_TYPE":"U","MEAN_MOTION":14.96890964,"ECCENTRICITY":0.00070812,"INCLINATION":97.8506,"RA_OF_ASC_NODE":325.5677,"ARG_OF_PERICENTER":264.1655,"MEAN_ANOMALY":95.8759,"EPHEMERIS_TYPE":0,"NORAD_CAT_ID":59108,"ELEMENT_SET_NO":999,"REV_AT_EPOCH":12854,"BSTAR":0.000048021594,"MEAN_MOTION_DOT":0.00000491,"MEAN_MOTION_DDOT":0},{"OBJECT_NAME":"BRO-14","OBJECT_ID":"2024-149CM","EPOCH":"2026-07-12T17:49:05.342016","CLASSIFICATION_TYPE":"U","MEAN_MOTION":14.96231446,"ECCENTRICITY":0.00069342,"INCLINATION":97.6861,"RA_OF_ASC_NODE":269.0607,"ARG_OF_PERICENTER":24.7514,"MEAN_ANOMALY":335.4039,"EPHEMERIS_TYPE":0,"NORAD_CAT_ID":60551,"ELEMENT_SET_NO":999,"REV_AT_EPOCH":10381,"BSTAR":0.000067290614,"MEAN_MOTION_DOT":0.00000702,"MEAN_MOTION_DDOT":0},{"OBJECT_NAME":"BRO-15","OBJECT_ID":"2024-149CP","EPOCH":"2026-07-12T23:49:20.058528","CLASSIFICATION_TYPE":"U","MEAN_MOTION":14.96221271,"ECCENTRICITY":0.0007923,"INCLINATION":97.6795,"RA_OF_ASC_NODE":268.8846,"ARG_OF_PERICENTER":12.02,"MEAN_ANOMALY":348.1209,"EPHEMERIS_TYPE":0,"NORAD_CAT_ID":60553,"ELEMENT_SET_NO":999,"REV_AT_EPOCH":10386,"BSTAR":0.000043744619,"MEAN_MOTION_DOT":0.00000436,"MEAN_MOTION_DDOT":0},{"OBJECT_NAME":"BRO-16","OBJECT_ID":"2025-009AX","EPOCH":"2026-07-12T16:26:49.600320","CLASSIFICATION_TYPE":"U","MEAN_MOTION":15.24117857,"ECCENTRICITY":0.00019006,"INCLINATION":97.4059,"RA_OF_ASC_NODE":273.8571,"ARG_OF_PERICENTER":158.7568,"MEAN_ANOMALY":201.3749,"EPHEMERIS_TYPE":0,"NORAD_CAT_ID":62654,"ELEMENT_SET_NO":999,"REV_AT_EPOCH":8268,"BSTAR":0.000094808839,"MEAN_MOTION_DOT":0.00002233,"MEAN_MOTION_DDOT":0},{"OBJECT_NAME":"BRO-18","OBJECT_ID":"2025-135Y","EPOCH":"2026-07-13T06:50:40.035840","CLASSIFICATION_TYPE":"U","MEAN_MOTION":15.22163639,"ECCENTRICITY":0.00024115,"INCLINATION":97.4654,"RA_OF_ASC_NODE":309.1169,"ARG_OF_PERICENTER":117.9985,"MEAN_ANOMALY":242.1496,"EPHEMERIS_TYPE":0,"NORAD_CAT_ID":64550,"ELEMENT_SET_NO":999,"REV_AT_EPOCH":5884,"BSTAR":0.00010219234,"MEAN_MOTION_DOT":0.00002274,"MEAN_MOTION_DDOT":0},{"OBJECT_NAME":"BRO-17","OBJECT_ID":"2025-276G","EPOCH":"2026-07-13T03:40:07.464288","CLASSIFICATION_TYPE":"U","MEAN_MOTION":15.18148839,"ECCENTRICITY":0.00050665,"INCLINATION":97.4188,"RA_OF_ASC_NODE":266.7601,"ARG_OF_PERICENTER":268.5988,"MEAN_ANOMALY":91.4666,"EPHEMERIS_TYPE":0,"NORAD_CAT_ID":66672,"ELEMENT_SET_NO":999,"REV_AT_EPOCH":3433,"BSTAR":0.0001028945,"MEAN_MOTION_DOT":0.00002034,"MEAN_MOTION_DDOT":0},{"OBJECT_NAME":"BRO-20","OBJECT_ID":"2025-276J","EPOCH":"2026-07-12T23:56:06.489312","CLASSIFICATION_TYPE":"U","MEAN_MOTION":15.18318965,"ECCENTRICITY":0.00046725,"INCLINATION":97.4164,"RA_OF_ASC_NODE":266.5958,"ARG_OF_PERICENTER":273.3746,"MEAN_ANOMALY":86.6954,"EPHEMERIS_TYPE":0,"NORAD_CAT_ID":66674,"ELEMENT_SET_NO":999,"REV_AT_EPOCH":3431,"BSTAR":0.000087523554,"MEAN_MOTION_DOT":0.00001729,"MEAN_MOTION_DDOT":0},{"OBJECT_NAME":"BRO-21","OBJECT_ID":"2026-100AD","EPOCH":"2026-07-13T07:11:36.108672","CLASSIFICATION_TYPE":"U","MEAN_MOTION":15.21614409,"ECCENTRICITY":0.0007,"INCLINATION":97.4018,"RA_OF_ASC_NODE":91.7663,"ARG_OF_PERICENTER":336.8628,"MEAN_ANOMALY":23.2292,"EPHEMERIS_TYPE":0,"NORAD_CAT_ID":69007,"ELEMENT_SET_NO":999,"REV_AT_EPOCH":1077,"BSTAR":0.000064103,"MEAN_MOTION_DOT":0.00001378,"MEAN_MOTION_DDOT":0},{"OBJECT_NAME":"BRO-22","OBJECT_ID":"2026-132C","EPOCH":"2026-07-12T23:20:36.934944","CLASSIFICATION_TYPE":"U","MEAN_MOTION":14.99801309,"ECCENTRICITY":0.00163241,"INCLINATION":97.6831,"RA_OF_ASC_NODE":257.3222,"ARG_OF_PERICENTER":188.8006,"MEAN_ANOMALY":171.2934,"EPHEMERIS_TYPE":0,"NORAD_CAT_ID":69504,"ELEMENT_SET_NO":999,"REV_AT_EPOCH":464,"BSTAR":0.000056506607,"MEAN_MOTION_DOT":0.00000641,"MEAN_MOTION_DDOT":0}]}
