BRO-1                   
1 44495U 19054A   26194.00726257  .01105010  79549-3  89524-3 0  9992
2 44495  44.9818 132.4627 0008972 179.7711 180.3210 16.13463787383876
BRO-5                   
1 51061U 22002CF  26194.30008481  .00019247  00000+0  35930-3 0  9990
2 51061  97.2993 268.2244 0005198 210.5605 149.5344 15.48806116250292
BRO-6                   
1 52422U 22047AE  26194.25900800  .00027325  00000+0  44745-3 0  9991
2 52422  97.3396 285.8485 0002932 321.9462  38.1583 15.52461327235191
BRO-8                   
1 55011U 23001C   26194.26117456  .00021262  00000+0  37155-3 0  9998
2 55011  97.3193 259.8479 0005057  46.7613 313.4060 15.50670084196249
BRO-11                  
1 58264U 23174J   26194.25454473  .00002729  00000+0  10377-3 0  9998
2 58264  97.3902 270.8616 0011945 113.5802 246.6693 15.27579931148735
BRO-13                  
1 59107U 24043K   26194.30093306  .00000807  00000+0  76004-4 0  9996
2 59107  97.8521 325.4070 0007533 269.8423  90.1935 14.96647620128529
BRO-12                  
1 59108U 24043L   26194.29278453  .00000491  00000+0  48022-4 0  9991
2 59108  97.8506 325.5677 0007081 264.1655  95.8759 14.96890964128549
BRO-14                  
1 60551U 24149CM  26193.74242294  .00000702  00000+0  67291-4 0  9999
2 60551  97.6861 269.0607 0006934  24.7514 335.4039 14.96231446103811
BRO-15                  
1 60553U 24149CP  26193.99259327  .00000436  00000+0  43745-4 0  9995
2 60553  97.6795 268.8846 0007923  12.0200 348.1209 14.96221271103862
BRO-16                  
1 62654U 25009AX  26193.68529630  .00002233  00000+0  94809-4 0  9992
2 62654  97.4059 273.8571 0001900 158.7568 201.3749 15.24117857 82683
BRO-18                  
1 64550U 25135Y   26194.28518560  .00002274  00000+0  10219-3 0  9993
2 64550  97.4654 309.1169 0002411 117.9985 242.1496 15.22163639 58845
BRO-17                  
1 66672U 25276G   26194.15286417  .00002034  00000+0  10289-3 0  9996
2 66672  97.4188 266.7601 0005066 268.5988  91.4666 15.18148839 34330
BRO-20                  
1 66674U 25276J   26193.99729733  .00001729  00000+0  87524-4 0  9999
2 66674  97.4164 266.5958 0004672 273.3746  86.6954 15.18318965 34310
BRO-21                  
1 69007U 26100AD  26194.29972349  .00001378  00000+0  64103-4 0  9994
2 69007  97.4018  91.7663 0006999 336.8628  23.2292 15.21614409 10772
BRO-22                  
1 69504U 26132C   26193.97264971  .00000641  00000+0  56507-4 0  9991
2 69504  97.6831 257.3222 0016324 188.8006 171.2934 14.99801309  4645
